{
  "type": "FeatureCollection",
  "features": [
    {
      "type": "Feature",
      "properties": {
        "norad_id": 31773,
        "name": "FENGYUN 1C DEB",
        "group": "fengyun-1c-debris",
        "lat": 45.9218607057224,
        "lon": 176.89193709996152,
        "alt_km": 620.8215683450871,
        "timestamp": "2025-12-21T16:47:55.022515+00:00",
        "meta_object_name": "FENGYUN 1C DEB",
        "meta_object_id": "1999-025CFY",
        "meta_epoch": "2025-12-20T19:00:09.313344",
        "meta_mean_motion": 14.73014348,
        "meta_eccentricity": 0.00395484,
        "meta_inclination": 98.9495,
        "meta_ra_of_asc_node": 346.5259,
        "meta_arg_of_pericenter": 153.1663,
        "meta_mean_anomaly": 207.1599,
        "meta_ephemeris_type": 0,
        "meta_classification_type": "U",
        "meta_norad_cat_id": 31773,
        "meta_element_set_no": 999,
        "meta_rev_at_epoch": 65293,
        "meta_bstar": 0.0011554154,
        "meta_mean_motion_dot": 7.461e-05,
        "meta_mean_motion_ddot": 0,
        "tle_line1": "1 31773U 99025CFY 25354.79177446  .00007461  00000+0  11554-2 0  9995",
        "tle_line2": "2 31773  98.9495 346.5259 0039548 153.1663 207.1599 14.73014348652938"
      },
      "geometry": {
        "type": "Point",
        "coordinates": [
          176.89193709996152,
          45.9218607057224
        ]
      }
    },
    {
      "type": "Feature",
      "properties": {
        "norad_id": 31776,
        "name": "FENGYUN 1C DEB",
        "group": "fengyun-1c-debris",
        "lat": -73.67808298658319,
        "lon": -157.43246153337714,
        "alt_km": 813.4876974370982,
        "timestamp": "2025-12-21T16:47:55.022525+00:00",
        "meta_object_name": "FENGYUN 1C DEB",
        "meta_object_id": "1999-025CGB",
        "meta_epoch": "2025-12-17T10:20:15.158400",
        "meta_mean_motion": 14.18576504,
        "meta_eccentricity": 0.00542331,
        "meta_inclination": 99.0756,
        "meta_ra_of_asc_node": 51.2828,
        "meta_arg_of_pericenter": 321.0516,
        "meta_mean_anomaly": 105.4475,
        "meta_ephemeris_type": 0,
        "meta_classification_type": "U",
        "meta_norad_cat_id": 31776,
        "meta_element_set_no": 999,
        "meta_rev_at_epoch": 94947,
        "meta_bstar": 0.0010653366,
        "meta_mean_motion_dot": 2.191e-05,
        "meta_mean_motion_ddot": 0,
        "tle_line1": "1 31776U 99025CGB 25351.43073100  .00002191  00000+0  10653-2 0  9992",
        "tle_line2": "2 31776  99.0756  51.2828 0054233 321.0516 105.4475 14.18576504949473"
      },
      "geometry": {
        "type": "Point",
        "coordinates": [
          -157.43246153337714,
          -73.67808298658319
        ]
      }
    },
    {
      "type": "Feature",
      "properties": {
        "norad_id": 31779,
        "name": "FENGYUN 1C DEB",
        "group": "fengyun-1c-debris",
        "lat": -42.40629000727514,
        "lon": 87.85833074714577,
        "alt_km": 696.0218047023263,
        "timestamp": "2025-12-21T16:47:55.022535+00:00",
        "meta_object_name": "FENGYUN 1C DEB",
        "meta_object_id": "1999-025CGE",
        "meta_epoch": "2025-12-21T05:47:14.844192",
        "meta_mean_motion": 14.41613884,
        "meta_eccentricity": 0.021364,
        "meta_inclination": 99.2993,
        "meta_ra_of_asc_node": 275.9654,
        "meta_arg_of_pericenter": 157.9597,
        "meta_mean_anomaly": 203.0948,
        "meta_ephemeris_type": 0,
        "meta_classification_type": "U",
        "meta_norad_cat_id": 31779,
        "meta_element_set_no": 999,
        "meta_rev_at_epoch": 97132,
        "meta_bstar": 0.00018438,
        "meta_mean_motion_dot": 7.27e-06,
        "meta_mean_motion_ddot": 0,
        "tle_line1": "1 31779U 99025CGE 25355.24114403  .00000727  00000+0  18438-3 0  9993",
        "tle_line2": "2 31779  99.2993 275.9654 0213640 157.9597 203.0948 14.41613884971325"
      },
      "geometry": {
        "type": "Point",
        "coordinates": [
          87.85833074714577,
          -42.40629000727514
        ]
      }
    },
    {
      "type": "Feature",
      "properties": {
        "norad_id": 31780,
        "name": "FENGYUN 1C DEB",
        "group": "fengyun-1c-debris",
        "lat": 1.0788268449761698,
        "lon": 149.37965533946507,
        "alt_km": 568.6253709010052,
        "timestamp": "2025-12-21T16:47:55.022545+00:00",
        "meta_object_name": "FENGYUN 1C DEB",
        "meta_object_id": "1999-025CGF",
        "meta_epoch": "2025-12-19T09:14:08.893824",
        "meta_mean_motion": 14.69562649,
        "meta_eccentricity": 0.0150519,
        "meta_inclination": 99.2856,
        "meta_ra_of_asc_node": 146.9253,
        "meta_arg_of_pericenter": 32.9124,
        "meta_mean_anomaly": 328.1341,
        "meta_ephemeris_type": 0,
        "meta_classification_type": "U",
        "meta_norad_cat_id": 31780,
        "meta_element_set_no": 999,
        "meta_rev_at_epoch": 98595,
        "meta_bstar": 0.00017735,
        "meta_mean_motion_dot": 1.179e-05,
        "meta_mean_motion_ddot": 0,
        "tle_line1": "1 31780U 99025CGF 25353.38482516  .00001179  00000+0  17735-3 0  9992",
        "tle_line2": "2 31780  99.2856 146.9253 0150519  32.9124 328.1341 14.69562649985952"
      },
      "geometry": {
        "type": "Point",
        "coordinates": [
          149.37965533946507,
          1.0788268449761698
        ]
      }
    },
    {
      "type": "Feature",
      "properties": {
        "norad_id": 31781,
        "name": "FENGYUN 1C DEB",
        "group": "fengyun-1c-debris",
        "lat": 69.37530022117397,
        "lon": 13.555665049243682,
        "alt_km": 954.6399689271584,
        "timestamp": "2025-12-21T16:47:55.022555+00:00",
        "meta_object_name": "FENGYUN 1C DEB",
        "meta_object_id": "1999-025CGG",
        "meta_epoch": "2025-12-19T18:23:15.038592",
        "meta_mean_motion": 14.13066049,
        "meta_eccentricity": 0.02036338,
        "meta_inclination": 99.4964,
        "meta_ra_of_asc_node": 165.0977,
        "meta_arg_of_pericenter": 254.3992,
        "meta_mean_anomaly": 103.4621,
        "meta_ephemeris_type": 0,
        "meta_classification_type": "U",
        "meta_norad_cat_id": 31781,
        "meta_element_set_no": 999,
        "meta_rev_at_epoch": 68447,
        "meta_bstar": 0.002513497,
        "meta_mean_motion_dot": 5.669e-05,
        "meta_mean_motion_ddot": 0,
        "tle_line1": "1 31781U 99025CGG 25353.76614628  .00005669  00000+0  25135-2 0  9996",
        "tle_line2": "2 31781  99.4964 165.0977 0203633 254.3992 103.4621 14.13066049684479"
      },
      "geometry": {
        "type": "Point",
        "coordinates": [
          13.555665049243682,
          69.37530022117397
        ]
      }
    },
    {
      "type": "Feature",
      "properties": {
        "norad_id": 31782,
        "name": "FENGYUN 1C DEB",
        "group": "fengyun-1c-debris",
        "lat": -56.201658309478695,
        "lon": -36.35638661823779,
        "alt_km": 780.8132129252263,
        "timestamp": "2025-12-21T16:47:55.022565+00:00",
        "meta_object_name": "FENGYUN 1C DEB",
        "meta_object_id": "1999-025CGH",
        "meta_epoch": "2025-12-20T16:34:18.155424",
        "meta_mean_motion": 14.362498,
        "meta_eccentricity": 0.00791793,
        "meta_inclination": 98.9044,
        "meta_ra_of_asc_node": 156.1455,
        "meta_arg_of_pericenter": 333.5245,
        "meta_mean_anomaly": 88.1564,
        "meta_ephemeris_type": 0,
        "meta_classification_type": "U",
        "meta_norad_cat_id": 31782,
        "meta_element_set_no": 999,
        "meta_rev_at_epoch": 96805,
        "meta_bstar": 0.00025369682,
        "meta_mean_motion_dot": 7.19e-06,
        "meta_mean_motion_ddot": 0,
        "tle_line1": "1 31782U 99025CGH 25354.69048791  .00000719  00000+0  25370-3 0  9995",
        "tle_line2": "2 31782  98.9044 156.1455 0079179 333.5245  88.1564 14.36249800968059"
      },
      "geometry": {
        "type": "Point",
        "coordinates": [
          -36.35638661823779,
          -56.201658309478695
        ]
      }
    },
    {
      "type": "Feature",
      "properties": {
        "norad_id": 31783,
        "name": "FENGYUN 1C DEB",
        "group": "fengyun-1c-debris",
        "lat": -27.030004322040718,
        "lon": 8.3843362889653,
        "alt_km": 822.1065340790328,
        "timestamp": "2025-12-21T16:47:55.022575+00:00",
        "meta_object_name": "FENGYUN 1C DEB",
        "meta_object_id": "1999-025CGJ",
        "meta_epoch": "2025-12-20T06:53:25.982592",
        "meta_mean_motion": 14.08842598,
        "meta_eccentricity": 0.01039748,
        "meta_inclination": 98.6049,
        "meta_ra_of_asc_node": 2.6048,
        "meta_arg_of_pericenter": 28.7009,
        "meta_mean_anomaly": 343.3126,
        "meta_ephemeris_type": 0,
        "meta_classification_type": "U",
        "meta_norad_cat_id": 31783,
        "meta_element_set_no": 999,
        "meta_rev_at_epoch": 89327,
        "meta_bstar": 0.00037929066,
        "meta_mean_motion_dot": 6.47e-06,
        "meta_mean_motion_ddot": 0,
        "tle_line1": "1 31783U 99025CGJ 25354.28710628  .00000647  00000+0  37929-3 0  9999",
        "tle_line2": "2 31783  98.6049   2.6048 0103974  28.7009 343.3126 14.08842598893270"
      },
      "geometry": {
        "type": "Point",
        "coordinates": [
          8.3843362889653,
          -27.030004322040718
        ]
      }
    }
  ]
}